 2001 11 9 1956 45.9 L   4.748 -76.344113.7  RSN  9 0.8 3.4LRSN                1
 GAP=124        1.16       8.7     8.6 21.6  0.2015E+02  0.1690E+02  0.1932E+01E
 ACTION:SPL 16-07-19 20:20 OP:lp   STATUS:               ID:20011109195646 L   I
 2001-11-09-1954-37S.COL___014                                                 6
 2001-11-09-1954-37S.COL___014                                                 6
 STAT SP IPHASW D HRMM SECON CODA AMPLIT PERI AZIMU VELO AIN AR TRES W  DIS CAZ7
 BAR  SZ EP     C 1957 40.40                                                    
 BAR  SZ ES     D 1958 22.30                                                    
 CUM  SZ EP     C 1957 46.47                                            461 201 
 CUM  SZ ES     D 1958 33.78                                                    
 FLO  SZ EP     C 1957 34.80                                            366 168 
 GUA  SZ ES     D 1957 47.87                                                    
 OCA  SZ EP     C 1957 50.75                                            511  41 
 OCA  SZ ES     D 1958 42.26                                            511  41 
 PRA  SZ EP     C 1957 11.32                                                    
 RUS  SZ EP     C 1957 38.99                                            385  70 
 RUS  SZ I        1958 51.37        29.3 1.20                           385  70 
 CHI  SZ EP     C 1957 27.41                                            290  92 
 CHI  SZ ES     D 1957 58.07                                            290  92 
 CHI  SZ  AMPG    1957 27.95      1535.5 0.30                           290  92 
 CHI  SZ  AMSG    1958  2.64       767.0 0.83                                   
 HEL  SZ EP     D 1957 15.09                                            187  28 
 HEL  SZ ES     D 1957 37.72                                            187  28 
 HEL  SZ  AMPG    1957 15.66      3926.5 0.13                           187  28 
 HEL  SZ  AMSG    1957 37.99       866.0 0.43                                   
 SOL  SZ EP     C 1957 18.20                                            218 326 
 SOL  SZ ES     C 1957 42.45                                            218 326 
 SOL  SZ  AMSG    1957 42.95      3342.0 0.13                           218 326 
 SOL  SZ  AMPG    1957 18.44      1774.5 0.20                                   
 TOL  SZ IP     D 1957  7.19                                    -0.310  113  99 
 TOL  SZ ES     C 1957 23.60                                            113  99 
 TOL  SZ  AMSG    1957 24.03     22394.0 0.23                           113  99 
 TOL  SZ  AMPG    1957  7.63     13029.0 0.30                                   
                                                                                
