 1997  116 0036 29.9 L   4.860 -76.213105.4  RSN 10 0.8 3.3LRSN                1
 GAP= 99        2.00      10.3    10.3 23.0 -0.2528E+02  0.9353E+02 -0.1913E+02E
 ACTION:SPL 16-07-19 20:20 OP:lp   STATUS:               ID:19970116003629 L   I
 1997-01-16-0036-00S.COL___011                                                 6
 STAT SP IPHASW D HRMM SECON CODA AMPLIT PERI AZIMU VELO AIN AR TRES W  DIS CAZ7
 CHI  SZ IP     C  037 10.07                                                    
 FLO  SZ EP     D  037 18.81                                            376 170 
 FLO  SZ I         037 58.58        27.2 0.80                           376 170 
 MAL  SZ EP     D  036 55.79                                            156 233 
 MAL  SZ I         037 11.70       336.7 1.40                           156 233 
 RUS  SZ EP     D  037 19.79                                            367  71 
 RUS  SZ I         038  6.25        26.7 0.40                           367  71 
 BET  SZ EP     D  037  5.67                                            256 160 
 BET  SZ ES     C  037 33.37                                                    
 NOR  SZ ES     D  037 17.16                                            167  61 
 NOR  SZ IP     D  036 56.28                                                    
 NOR  SZ  AMPG     036 56.71       990.0 0.17                                   
 NOR  SZ  AMSG     037 18.29      4212.5 0.37                                   
 BAR  SZ EP     D  037 21.99                                            390  59 
 BAR  SZ ES     D  038  2.11                                            390  59 
 BAR  SZ I         038  5.19        78.4 0.30                           390  59 
 PRA  SZ IP   0 C  036 58.90                                    -0.1 9  194 131 
 PRA  SZ ES     C  037 21.54                                            194 131 
 PRA  SZ I         037 22.68       234.9 0.60                           194 131 
 SOL  SZ EP     D  036 59.41                                            217 321 
 SOL  SZ I         037 25.10       117.2 0.80                           217 321 
 SOL  SZ ES     D  037 23.04                                                    
 TOL  SZ ES     D  037  5.36                                            101 107 
 TOL  SZ IP     D  036 49.82                                                    
                                                                                
