 2012  219 2350 16.7 L   4.741 -76.177 89.9  RSN 12 0.4 3.6LRSN 4.0WRSN        1
 SPEC AVERAGE  MO 15.0 ST142.4 OM  5.3 f0 4.60 R0.3215 AL 3.15 WI 14.5 MW  4.0 3
 SPEC SD       MO  0.0 ST 22.3 OM  2.6 f00.385 R0.0269 AL      WI      MW  0.0 3
 GAP=127        0.94       3.3     3.9  6.3 -0.5301E+01 -0.4480E+01  0.1911E+01E
 SPEC RREFHH Z MO 15.0 ST164.8 OM  2.7 f0 4.99 R0.2946 AL 3.81 WI 14.5 MW  3.9 3
 SPEC RREFHH Z T235034 K 0.020 GD  129 VP 7.60 DE 3.20 Q0230.0 QA 0.60 VS 4.20 3
 SPEC YOT HH Z MO 15.1 ST120.1 OM  2.8 f0 4.22 R0.3483 AL 2.49 WI 14.5 MW  4.0 3
 SPEC YOT HH Z T235033 K 0.020 GD  124 VP 7.60 DE 3.20 Q0230.0 QA 0.60 VS 4.20 3
 ACTION:SPL 16-07-19 20:20 OP:lp   STATUS:               ID:20120219235016 L   I
 2012-02-19-2347-44S.COL___167                                                 6
 STAT SP IPHASW D HRMM SECON CODA AMPLIT PERI AZIMU VELO AIN AR TRES W  DIS CAZ7
 PAL  HN ES   1   2350 39.42                             165    0.19 7 21.6 327 
 YOT  HE ES   1   2350 47.74                             133    0.92 7 85.8 193 
 ANIL HN ES   1   2350 47.32                             132   -0.64 7 90.2 108 
 RREF HN ES   1   2350 49.00                             131   -0.34 7 93.7  79 
 GUY  SN ES   1   2350 50.52                             128    0.10 7  102  59 
 HORQ SN ES   1   2350 58.97                             117    0.51 7  148 200 
 PRA  HN ES   1   2351  5.20                             111    0.26 7  183 128 
 MARA HN ES   1   2351 10.66                             108   -0.72 6  211 173 
 CHI  HN ES       2351 25.39                             104    1.02 8  272  93 
 PTB  HE ES   1   2351 24.40                             104    0.07 6  275  44 
 ANIL HZ IP     D 2350 33.70                             132           90.2 108 
 ANIL HZ ES     C 2350 47.54                                                    
 ANIL HZ  AMPG    2350 34.18     32412.5 0.26                                   
 ANIL HZ  AMSG    2350 47.97     18059.5 0.16                                   
 ANIL HT ES     C 2350 53.66                                                    
 BAR2 SZ EP     D 2351  9.26                                                    
 BET  SZ EP     D 2350 50.28                                                    
 BRR  HZ EP     C 2351  6.99                                                    
 CHI  HT ES     D 2351 26.24                                                    
 CHI  HT  AMSG    2351 26.81      2308.0 0.96                                   
 CHI  HZ EP     C 2350 56.36                                                    
 CHI  HZ ES     D 2351 26.51                                                    
 CHI  HZ  AMSG    2351 27.67       938.5 0.84                                   
 CHI  HZ  AMPG    2350 56.85       501.5 0.28                                   
 FLO2 HZ EP     D 2351  4.04                                                    
 GIR2 SZ EP     D 2351 12.38                                                    
 GIR2 SZ ES     C 2351 55.45                                                    
 GUY  SZ EP     C 2350 35.90                             128            102  59 
 GUY  SZ I        2350 53.04      1033.5 0.24                           102  59 
 GUY  SZ ES     C 2350 51.01                                                    
 GUY  SZ  AMPG    2350 36.47       976.5 0.22                                   
 GUY  SZ  AMSG    2350 51.78      2592.5 0.34                                   
 GUY  ST ES     D 2350 50.45                                                    
 HEL  HZ EP     C 2350 43.19                             113            176  24 
 HEL  HZ I        2351  6.73       309.2 0.18                           176  24 
 HEL  HZ ES     D 2351  5.93                                                    
 HORQ SZ EP     C 2350 39.96                             117            148 200 
 HORQ SZ I        2351  1.16       799.2 0.56                           148 200 
 HORQ SZ ES     C 2350 59.49                                                    
 HORQ ST ES     D 2350 59.15                                                    
 MARA HZ EP     D 2350 47.61                             108            211 173 
 MARA HZ I        2351 13.25       304.9 0.62                           211 173 
 MARA HZ ES     D 2351 10.87                                                    
 NOR  ST ES     D 2351  3.23                                                    
 NOR  SZ ES     C 2351  3.30                                                    
 NOR  SZ EP     C 2350 43.06                                                    
 OCA  SZ EP     C 2351 22.73                                                    
 OCA  SZ ES     D 2352 13.14                                                    
 OCA  SZ  AMPG    2351 23.36        43.5 0.17                                   
 OCA  SZ  AMSG    2352 14.24        60.0 0.73                                   
 PAL  HZ EP     C 2350 29.48                             165           21.6 327 
 PAL  HT ES     C 2350 40.13                                                    
 PRA  HZ IP     D 2350 44.01                             111    0.21 9  183 128 
 PRA  HZ  AMPG    2350 44.47     22469.0 0.12                                   
 PRA  HZ ES     C 2351  6.32                                                    
 PRA  HZ  AMSG    2351  6.99     18107.0 0.26                                   
 PRA  HT ES     D 2351  5.93                                                    
 PRA  HT  AMSG    2351  7.84     70808.5 0.44                                   
 PTB  HZ EP     C 2350 55.01                             104            275  44 
 PTB  HT ES     C 2351 24.17                                                    
 PAM  SZ EP     C 2351 20.36                                                    
 PCON HZ EP     D 2350 54.86                                                    
 ROSC BZ EP     C 2350 48.82                                                    
 RREF HZ IP     D 2350 35.03                             131   -0.0110 93.7  79 
 RREF HZ I        2350 51.53      1076.8 0.24                          93.7  79 
 RREF HZ ES     C 2350 49.82                                                    
 RREF HZ  AMPG    2350 35.54     37430.5 0.20                                   
 RREF HZ  AMSG    2350 50.19     43260.5 0.18                                   
 RREF HT ES     D 2350 49.40                                                    
 RREF HT  AMSG    2350 49.92     57237.1 0.40                                   
 SJA  SZ IP     C 2350 57.46                                                    
 SJA  SZ ES     D 2351 28.15                                                    
 SJA  SZ  AMPG    2350 57.97      4053.0 0.34                                   
 SJA  SZ  AMSG    2351 28.81      6765.5 0.40                                   
 TOL  SZ EP     C 2350 34.63                             130           96.5 100 
 TOL  SZ ES     C 2350 48.92                                                    
 VIL  ST ES     C 2351 29.53                                                    
 VIL  ST  AMSG    2351 31.71      1818.8 0.72                                   
 VIL  SZ EP     D 2350 57.36                                                    
 VIL  SZ ES     D 2351 29.59                                                    
 VIL  SZ  AMPG    2350 58.09       192.0 0.24                                   
 VIL  SZ  AMSG    2351 29.74       180.5 0.28                                   
 YOT  HZ IP     D 2350 33.43                             133   -0.1910 85.8 193 
 YOT  HZ I        2350 48.71      2133.4 0.40                          85.8 193 
 YOT  HZ ES     C 2350 48.17                                                    
 YOT  HT ES     C 2350 48.28                                                    
                                                                                
