 1999 1021 0401 59.9 L   4.700 -76.211 95.0  RSN 11 0.7 3.5LRSN                1
 GAP=120        1.29       5.0     5.9 13.4 -0.4233E+01  0.2984E+02 -0.4093E+01E
 ACTION:SPL 16-07-19 20:20 OP:lp   STATUS:               ID:19991021040200 L   I
 1999-10-21-0401-17S.COL___011                                                 6
 STAT SP IPHASW D HRMM SECON CODA AMPLIT PERI AZIMU VELO AIN AR TRES W  DIS CAZ7
 SOL  SZ EP   1    4 2 32.72                                     0.1 6  231 323 
 SOL  SZ ES   1    4 2 57.75                                    -0.5 6  231 323 
 SOL  SZ I         4 3  2.58        56.6  1.3                           231 323 
 BET  SZ EP   1    4 2 33.96                                     0.2 6  239 159 
 BET  SZ ES   1    4 2 59.27                                    -0.9 6  239 159 
 BET  SZ I         4 3  5.29       284.4  0.4                           239 159 
 CRU  SZ EP   1    4 2 48.89                                    -0.2 5  363 193 
 CRU  SZ ES   1    4 3 25.68                                    -1.7 5  363 193 
 CRU  SZ I         4 3 37.26        38.3  0.7                           363 193 
 RUS  SZ IP   0 D  4 2 50.95                                     0.6 6  373  69 
 RUS  SZ ES   0    4 3 28.67                                    -1.0 6  373  69 
 CUM  SZ EP   1    4 3  1.39                                     0.3 4  462 203 
 CUM  SZ I         4 4  0.03        23.4  0.4                           462 203 
 BAR  SZ EP     C  4 2 52.62                                                    
 CHI  SZ IP     D  4 2 39.41                                                    
 GUA  SZ EP     D  4 3  0.44                                            464 121 
 GUA  SZ I         4 3  0.90       245.0 0.30                           464 121 
 MUN  SZ EP   1    4 2 37.14                                     0.5 6  260 199 
 MUN  SZ ES     C  4 3  6.17                                            260 199 
 MUN  SZ I         4 3 12.36       184.4 0.30                           260 199 
 OCA  SZ EP   1    4 3  4.98                                    -1.1 3  505  39 
 OCA  SZ I         4 3 57.02       103.9 1.10                           505  39 
 OCA  SZ ES     C  4 3 55.99                                                    
 OCA  SZ  AMPG     4 3  6.39       492.5 0.33                                   
 OCA  SZ  AMSG     4 3 56.17       695.0 0.73                                   
 TOL  SZ IP     D  4 2 18.78                                             97  97 
 TOL  SZ I         4 2 19.22      2287.4 0.10                            97  97 
 TOL  SZ ES     D  4 2 33.06                                             97  97 
 TOL  SZ  AMPG     4 2 19.14     27687.5 0.33                                   
 TOL  SZ  AMSG     4 2 33.47     17458.0 0.23                                   
                                                                                
