 2001  421 2332 34.6 L   4.606 -76.220 91.5  RSN  7 0.6 3.4LRSN                1
 GAP=200        1.45       6.7     8.8 16.5  0.2210E+02  0.5036E+02 -0.1314E+02E
 ACTION:SPL 16-07-19 20:20 OP:lp   STATUS:               ID:20010421233234 L   I
 2001-04-21-2330-16S.COL___008                                                 6
 STAT SP IPHASW D HRMM SECON CODA AMPLIT PERI AZIMU VELO AIN AR TRES W  DIS CAZ7
 CHI  SZ EP     D 2333 14.45                                            276  89 
 CHI  SZ ES     C 2333 42.80                                            276  89 
 BAR  SZ EP     C 2333 28.59                                            406  56 
 OCA  SZ ES     C 2334 32.47                                            514  38 
 SOL  SZ EP       2333  8.15                                    -0.1 8  238 325 
 SOL  SZ I        2333 38.30        86.7 0.50                           238 325 
 HEL  SZ EP     C 2333  3.52                                                    
 HEL  SZ ES     C 2333 26.36                                                    
 HEL  SZ  AMPG    2333  4.50       684.5 0.40                                   
 HEL  SZ  AMSG    2333 26.57       567.5 0.67                                   
 PRA  SZ IP     D 2333  0.72                                    -0.5 9  178 124 
 PRA  SZ ES     C 2333 21.75                                            178 124 
 PRA  SZ  AMSG    2333 21.86      5366.5 0.30                           178 124 
 PRA  SZ  AMPG    2333  1.19      9788.5 0.23                                   
 TOL  SZ IP     D 2332 52.67                                    -0.410   98  91 
 TOL  SZ ES     D 2333  7.45                                             98  91 
 TOL  SZ  AMSG    2333  7.79      9235.5 0.20                            98  91 
 TOL  SZ  AMPG    2332 52.99     34184.5 0.17                                   
                                                                                
