 1999 1027 0316 42.2 L   4.833 -76.191121.9  RSN 11 0.9 3.3LRSN                1
 GAP=118        1.88       7.3     7.5 16.1 -0.5283E+01  0.2987E+02 -0.3134E+00E
 ACTION:SPL 16-07-19 20:20 OP:lp   STATUS:               ID:19991027031642 L   I
 1999-10-27-0315-58S.COL___011                                                 6
 STAT SP IPHASW D HRMM SECON CODA AMPLIT PERI AZIMU VELO AIN AR TRES W  DIS CAZ7
 CHI  SZ IP   0 C  317 23.22                                     1.6 8  274  95 
 CHI  SZ I         317 24.05       183.3  0.6                           274  95 
 CHI  SZ ES   1    317 52.23                                    -0.1 6  274  95 
 RUS  SZ IP   0 D  317 32.84                                     0.4 6  366  71 
 RUS  SZ ES   0    318 10.58                                    -1.0 6  366  71 
 CRU  SZ IP   0 C  317 34.09                                     0.3 6  378 193 
 CRU  SZ I         318 21.18        48.7  0.5                           378 193 
 GUA  SZ IP   0 C  317 43.44                                    -0.9 5  470 122 
 GUA  SZ I         317 44.00        94.6  0.2                           470 122 
 CUM  SZ EP   1    317 46.28                                     0.7 3  476 203 
 CUM  SZ I         318 49.78        15.4  0.5                           476 203 
 FLO  SZ I         318 42.56        35.1 1.00                           372 170 
 FLO  SZ EP     C  317 31.61                                                    
 SOL  SZ I         317 43.21       131.7 0.40                           220 321 
 SOL  SZ EP     C  317 15.42                                                    
 BET  SZ IP   0 C  317 18.83                                     0.2 8  252 161 
 BET  SZ ES     D  317 45.90                                            252 161 
 BET  SZ I         317 49.05       212.3 1.00                           252 161 
 BET  SZ  AMPG     317 20.31      1410.0 0.13                                   
 BET  SZ  AMSG     317 46.87      1251.0 0.27                                   
 BAR  SZ EP   1    317 35.14                                     0.2 4  389  59 
 BAR  SZ ES   0    318 14.16                                    -1.9 6  389  59 
 BAR  SZ I         318 15.67        67.4 0.30                           389  59 
 MUN  SZ IP   0 C  317 21.62                                    -0.1 8  275 198 
 MUN  SZ ES     D  317 51.28                                            275 198 
 MUN  SZ I         317 59.42        72.2 0.60                           275 198 
 TOL  SZ IP   0 D  317  4.04                                     0.810   98 106 
 TOL  SZ ES     C  317 19.63                                             98 106 
 TOL  SZ I         317 22.21       999.9 0.80                            98 106 
 TOL  SZ  AMPG     317  4.57     17914.5 0.23                                   
 TOL  SZ  AMSG     317 20.22     10164.0 0.27                                   
                                                                                
