 2011  129 0005 17.6 L   4.874 -76.113108.0  RSN 16 0.6 4.3LRSN                1
 GAP= 81        1.40       4.3     5.6 10.0 -0.6460E+01  0.2383E+02  0.4698E+01E
 Epicentro: EL AGUILA - VALLE                                                  3
 ACTION:SPL 16-07-19 20:20 OP:lp   STATUS:               ID:20110129000517 L   I
 2011-01-29-0000-00M.COL___139                                                 6
 STAT SP IPHASW D HRMM SECON CODA AMPLIT PERI AZIMU VELO AIN AR TRES W  DIS CAZ7
 GUY  SE ES        0 5 52.38                             137     0.110   91  65 
 TOL  SZ IP     C  0 5 37.29                             136     0.210   93 110 
 TOL  SZ ES        0 5 52.15                             136    -0.110   93 110 
 NOR  SN ES        0 6  2.61                             119     0.0 9  157  61 
 HEL  HE ES        0 6  2.84                             119    -0.9 9  159  24 
 HORQ SN ES   1    0 6  4.07                             118    -0.3 7  164 200 
 SOL  SZ EP        0 5 49.25                             112     1.0 8  207 316 
 DBB  SZ IP     C  0 5 51.49                             109    -0.3 8  237 357 
 CHI  HE ES   1    0 6 24.65                             106    -0.4 6  265  96 
 SOTA HZ IP     D  0 6  0.27                             103    -0.3 7  308 190 
 SOTA HZ I         0 6 50.66       981.9 0.65                           308 190 
 CRU  SZ EP        0 6  8.68                              99    -0.1 6  377 194 
 BAR2 SZ IP     D  0 6  7.77                                                    
 BET  SZ IP     D  0 5 53.28                             107    -0.4 8  254 163 
 BET  SZ ES     D  0 6 21.49                                                    
 CHI  HZ IP     C  0 5 56.38                             106     0.9 8  265  96 
 CHI  HZ I         0 5 57.73      1489.0 0.59                           265  96 
 CHI  HZ ES     C  0 6 25.89                                                    
 CUM  SZ ES     D  0 6 20.44                                                    
 GIR2 SZ EP     D  0 6 11.11                                                    
 GRA  SZ EP     C  0 6 21.37                                                    
 GUA  SZ EP     C  0 6 18.02                                                    
 GUY  SZ IP     D  0 5 37.25                             137     0.210   91  65 
 GUY  SZ I         0 5 57.21      7753.2 0.69                            91  65 
 GUY  SZ ES     C  0 5 53.81                                                    
 GUY  ST ES     C  0 5 52.91                                                    
 HEL  HZ IP     C  0 5 43.24                             119    -0.3 9  159  24 
 HEL  HZ I         0 6  5.49      2141.8 0.80                           159  24 
 HEL  HZ ES     D  0 6  3.51                                                    
 HEL  HZ  AMPG     0 5 43.68     24608.5 0.14                                   
 HEL  HZ  AMSG     0 6  4.64     36300.5 0.52                                   
 HEL  HT ES     C  0 6  3.06                                                    
 HEL  HT  AMSG     0 6  4.85     36875.8 0.70                                   
 HORQ SZ IP     C  0 5 43.29                             118    -0.6 9  164 200 
 HORQ SZ I         0 6  9.07      2795.9 0.79                           164 200 
 HORQ SZ ES     D  0 6  4.71                                                    
 MAL  SZ ES   2    0 6  5.75                             118     1.7 5  166 235 
 MAL  SZ I         0 6 14.94      1166.2 0.52                           166 235 
 MAL  SZ IP     C  0 5 45.40                                                    
 NOR  SZ IP     D  0 5 42.73                             119    -0.2 9  157  61 
 NOR  SZ  AMPG     0 5 43.62      6945.5 0.14                                   
 NOR  SZ ES     D  0 6  3.04                                                    
 NOR  SZ  AMSG     0 6  4.80      4923.0 0.72                                   
 NOR  ST ES     D  0 6  2.36                                                    
 NOR  ST  AMSG     0 6  3.80      8667.1 0.68                                   
 OCA  SZ EP     C  0 6 20.95                                                    
 PCON HZ IP     D  0 5 57.96                             105     0.2 7  283 186 
 PCON HZ I         0 6 34.42       962.3 0.67                           283 186 
 PCON HZ ES     C  0 6 28.87                                                    
 PCON HZ  AMPG     0 5 59.63     26804.0 0.34                                   
 PCON HZ  AMSG     0 6 30.72     25940.0 0.28                                   
 PCON HT ES        0 6 28.25                                                    
 PCON HT  AMSG     0 6 30.02     87549.7 0.94                                   
 POP2 HZ EP     D  0 5 54.42                             106            265 194 
 POP2 HT ES     C  0 6 23.36                                                    
 ROSC BZ IP     C  0 5 49.00                             113     1.1 9  199  91 
 ROSC BZ ES     C  0 6 14.62                                                    
 RUS  HZ EP     C  0 6  5.31                                                    
 RUS  HZ ES     C  0 6 40.30                                                    
 RUS  HT ES     D  0 6 39.58                                                    
 SDV  BZ EP     D  0 6 51.37                                                    
 SDV  BT ES     C  0 8  3.05                                                    
 SJA  SZ IP     D  0 5 58.96                             104     0.0 7  298 126 
 SJA  SZ ES     C  0 6 30.60                                                    
 SJA  SZ  AMPG     0 5 59.30     14027.5 0.18                                   
 SJA  SZ  AMSG     0 6 30.77     36140.0 0.36                                   
 VIL  SZ IP     D  0 5 57.78                                                    
 VIL  SZ ES     D  0 6 27.67                                                    
 VIL  SZ  AMPG     0 5 58.84      1730.5 0.40                                   
 VIL  SZ  AMSG     0 6 30.28       459.5 0.72                                   
 VIL  SE ES     C  0 6 27.76                                                    
 VIL  SE  AMSG     0 6 30.56      2584.5 0.78                                   
 YOP  SZ EP     C  0 6 12.62                                                    
                                                                                
