 1997  929 1237 47.6 L   4.698 -76.175101.3  RSN 10 0.7 3.4LRSN                1
 GAP= 83        1.77       7.0     9.4 21.5  0.4100E+00  0.8834E+02  0.2758E+01E
 ACTION:SPL 16-07-19 20:20 OP:lp   STATUS:               ID:19970929123747 L   I
 1997-09-29-1237-05S.COL___013                                                 6
 STAT SP IPHASW D HRMM SECON CODA AMPLIT PERI AZIMU VELO AIN AR TRES W  DIS CAZ7
 BET  SZ EP     D 1238 20.89                                            237 160 
 CHI  SZ IP     D 1238 27.20                                     1.2 8  271  91 
 CRU  SZ EP     D 1238 35.53                                            364 194 
 HEL  SZ EP     D 1238 15.54                                            184  22 
 HEL  SZ ES     D 1238 37.38                                            184  22 
 MAL  SZ EP     D 1238 12.45                                            149 240 
 MAL  SZ I        1238 45.54       424.3 0.50                           149 240 
 MUN  SZ EP     C 1238 25.85                                            261 199 
 SOL  SZ EP     D 1238 19.55                                            233 323 
 TOL  SZ IP     D 1238  6.32                                    -0.210   93  97 
 TOL  SZ ES     D 1238 21.22                                             93  97 
 TOL  SZ  AMPG    1238  7.02     13439.5 0.23                                   
 TOL  SZ  AMSG    1238 22.56     20273.0 0.20                                   
 BAR  SZ EP     D 1238 40.76                                            396  57 
 BAR  SZ ES     C 1239 21.57                                            396  57 
 BAR  SZ  AMPG    1238 41.09      1156.0 0.37                                   
 BAR  SZ  AMSG    1239 23.35       780.5 0.20                                   
 PRA  SZ IP     D 1238 14.89                                     0.0 9  180 128 
 PRA  SZ ES     D 1238 36.00                                            180 128 
 PRA  SZ  AMPG    1238 15.18      1972.5 0.20                                   
 PRA  SZ  AMSG    1238 37.50      6099.5 0.27                                   
                                                                                
