 2011  831 0317 38.1 L   4.634 -76.248 80.1  RSN 21 0.5 3.6LRSN                1
 GAP= 83        1.36       3.6     4.4 11.6 -0.7203E+01  0.1609E+02 -0.6708E+01E
 Epicentro: VERSALLES - VALLE                                                  3
 ACTION:SPL 16-07-19 20:20 OP:lp   STATUS:               ID:20110831031738 L   I
 2011-08-31-0315-38S.COL___165                                                 6
 STAT SP IPHASW D HRMM SECON CODA AMPLIT PERI AZIMU VELO AIN AR TRES W  DIS CAZ7
 RREF HN ES   1    318 11.67                             123     0.4 7  104  74 
 GUY  SZ EP   1    317 57.38                             120    -0.3 7  115  56 
 GUY  SE ES   1    318 12.93                             120     0.0 7  115  56 
 GUY  SZ I         318 21.11      1189.0 0.53                           115  56 
 HORQ SE ES        318 16.81                             116     0.710  134 198 
 PRA  HE ES        318 25.23                             108    -0.2 9  182 124 
 NOR  SN ES   1    318 26.07                             108     0.2 7  184  56 
 HEL  HN ES   1    318 27.45                             108    -0.3 7  190  25 
 MARA HN ES   1    318 29.15                             106    -0.7 6  201 171 
 ROSC BZ IP     D  318 10.35                             105     1.3 8  215  84 
 ROSC BZ I         318 11.28       371.5 0.41                           215  84 
 ROSC BE ES   1    318 33.68                             105     0.5 6  215  84 
 POP2 HZ EP        318 10.47                             104    -0.9 8  236 192 
 POP2 HN ES   1    318 37.01                             104    -0.3 6  236 192 
 POP2 HZ I         318 41.91       663.9 0.16                           236 192 
 SOTA HZ EP   1    318 16.52                             101    -0.3 6  279 188 
 SOTA HZ I         318 57.73       240.8 0.76                           279 188 
 CRU  SZ EP        318 24.74                              99    -0.3 6  348 193 
 ZAR  HZ EP   2    318 24.83                              98    -0.2 3  352  26 
 ZAR  HN ES   1    319  1.15                              98    -0.5 5  352  26 
 ZAR  HZ I         319  4.36        72.0 0.24                           352  26 
 RUS  HE ES   1    319  8.08                              98    -0.3 5  377  68 
 ANIL HZ IP     D  317 55.06                             126    -0.310   95 100 
 ANIL HZ ES     C  318  9.09                                                    
 ANIL HZ  AMPG     317 55.39     16492.5 0.16                                   
 ANIL HZ  AMSG     318  9.62     29386.5 0.28                                   
 ANIL HE ES     C  318  9.24                             126             95 100 
 ANIL HE  AMSG     318 10.37     73660.0 0.32                                   
 BAR2 SZ EP     C  318 31.56                                                    
 BRR  HZ EP     C  318 29.03                              97            392  46 
 BRR  HZ I         318 30.32        52.6 0.13                           392  46 
 BRR  HE ES     C  319  9.03                                                    
 CHI  HZ I         318 18.57       217.0 0.43                           279  90 
 CHI  HZ IP     D  318 17.70                                                    
 CTAB SZ EP     C  318 12.17                                                    
 CVER SZ EP     D  318 13.55                                                    
 GIR2 SZ EP     C  318 34.53                                                    
 GIR2 SZ ES     C  319 18.96                                                    
 GOR  SZ EP     C  318 14.28                                                    
 GUA  SZ EP     D  318 37.52                                                    
 ANIL HT ES     C  318  9.75                                                    
 ANIL HT  AMSG     318 10.52     99434.5 0.18                                   
 CHI  HT ES     D  318 49.40                                                    
 CIBA1ET ES     D  318  0.56                                                    
 CROS EZ EP     D  318 10.42                                                    
 GCUF HT ES     D  319 10.72                                                    
 HEL  HT ES        318 28.43                                                    
 HEL  HZ EP     D  318  5.69                             108            190  25 
 HEL  HZ I         318 31.97       228.9 0.26                           190  25 
 HEL  HZ ES     D  318 29.63                                                    
 HORQ SZ EP     D  317 59.26                             116            134 198 
 HORQ SZ I         318 19.58      1624.6 0.40                           134 198 
 HORQ ST ES     D  318 17.94                                                    
 MAL  SZ EP     D  318  0.74                             115            139 240 
 MAL  SZ I         318 29.67       557.9 0.43                           139 240 
 MANI EE ES     C  318 10.58                                                    
 MANI EZ ES     D  318 10.85                                                    
 MARA HT ES     C  318 29.74                                                    
 MARA HZ EP     D  318  7.04                             106            201 171 
 MARA HZ I         318 31.65       871.8 0.20                           201 171 
 MARA HZ ES        318 29.70                                                    
 NOR  SZ EP     C  318  5.11                             108            184  56 
 NOR  SZ ES     C  318 27.62                                                    
 PRA  HZ IP     D  318  4.51                                                    
 PRA  HT ES     D  318 26.41                                                    
 ROSC BT ES     D  318 36.65                                                    
 RREF HZ I         318 14.93      1064.8 0.22                           104  74 
 RREF HZ IP     D  317 56.97                                                    
 RREF HT ES     D  318 12.12                                                    
 RUS  HZ EP     C  318 29.35                              98            377  68 
 RUS  HT ES     D  319  8.02                                                    
 SJA  SZ IP     C  318 18.06                             100            296 120 
 SJA  SZ I         318 58.49       330.7 0.81                           296 120 
 TOL  SZ IP     C  317 56.15                             123            103  93 
 VIL  SZ EP     D  318 18.52                             101            289 101 
 VIL  SZ I         318 20.46       670.4 0.41                           289 101 
 ZAR  HT ES     C  319  1.47                                                    
                                                                                
