 1997 1210 2012 16.4 L   4.747 -76.177 98.0  RSN 13 0.9 4.8LRSN                1
      99.5      49.9     130.0                               1    RSN PINV     F
      88.3      43.1     120.3 26.5 30.9      0.08 0.45 0.00      RSN HASH     F
  247.6700   65.1000   84.4900                               0    RSN FOCMEC   F
      90.0      38.0     118.0  5.0  7.0  3.0  0.0  0.1           RSN FPFIT    F
 GAP= 84        2.10      10.2     7.2 21.1 -0.5389E+01  0.1306E+02 -0.1804E+02E
 ACTION:UP  04-10-05 18:06 OP:KK   STATUS:               ID:19971210201216 L   I
 1997-12-10-2011-53S.COL___013                                                 6
 STAT SP IPHASW D HRMM SECON CODA AMPLIT PERI AZIMU VELO SNR AR TRES W  DIS CAZ7
 TUM  SZ EP   1   2013 12.38                                    -0.7 4  429 221 
 TUM  SZ I        2014 17.54      1303.3  0.5                           429 221 
 GUA  SZ EP     D 2013 16.74                                            463 122 
 GUA  SZ I        2013 17.14      2741.9 0.80                           463 122 
 KEN  SZ EP     D 2013 52.19                                            742  18 
 KEN  SZ I        2015  9.78       198.6 0.40                           742  18 
 MAL  SZ EP     C 2012 41.58                                            152 238 
 MAL  SZ I        2012 44.01      8531.3 1.00                           152 238 
 MAL  SZ ES   1   2013  0.10                                     1.0 7  152 238 
 OCA  SZ I        2013 23.87      4782.7 0.50                           499  39 
 OCA  SZ IP     D 2013 23.13                                                    
 OCA  SZ ES     D 2014 13.74                                                    
 RUS  SZ EP     C 2013  6.69                                            368  69 
 RUS  SZ I        2014 21.35      1418.4 1.50                           368  69 
 SOL  SZ EP     D 2012 48.30                                            229 322 
 SOL  SZ ES     C 2013 13.61                                            229 322 
 SOL  SZ I        2013 27.12      1527.5 0.90                           229 322 
 BAR  SZ EP     D 2013  9.94                                            393  58 
 BAR  SZ I        2013 58.02      1754.3 1.50                           393  58 
 CHI  SZ IP     D 2012 56.13                                     1.5 8  272  93 
 CHI  SZ ES     D 2013 24.65                                            272  93 
 CHI  SZ E        2013 24.68                                                    
 CRU  SZ EP     D 2013  5.00                                            369 194 
 CRU  SZ I        2013 54.22      1647.6 0.60                           369 194 
 CUM  SZ EP     D 2013 18.07                                            468 203 
 CUM  SZ I        2013 49.74       771.2 0.30                           468 203 
 FLO  SZ I        2013 58.48      2106.9 1.80                           363 170 
 FLO  SZ IP     D 2013  4.09                                                    
 TOL  SZ IP     D 2012 34.45                                    -0.610   95 101 
 TOL  SZ ES     D 2012 48.78                                             95 101 
 TOL  SZ I        2012 50.31     37597.9 0.70                            95 101 
                                                                                
