 2009 11 2 1218 51.8 L   4.679 -76.173 81.6  RSN 30 0.9 4.7LRSN                1
 GAP= 58        1.69       3.1     4.3 10.3 -0.4749E+01  0.1912E+02  0.3212E+01E
     192.9      83.3      52.3                               6    RSN PINV     F
      92.3      73.6    -158.9 21.3 23.8      0.18 0.50 0.00      RSN HASH     F
  358.6800   64.3400  -56.3100                               4    RSN FOCMEC   F
      88.0      68.0    -164.0  4.0  7.0 20.0  0.1  0.2           RSN FPFIT    F
 Epicentro: ARGELIA - VALLE                                                    3
 Evento Sentido                                                                2
 Reportado como Sentido:                                                       3
 CALI, JAMUNDI, ROLDANILLO, FLORIDA (VALLE DEL CAUCA), MANIZALES (CALDAS),     3
 ARMENIA, CALARCA (QUINDIO), LA VIRGINIA, PEREIRA (RISARALDA)                  3
 ACTION:UP  10-02-04 18:21 OP:cab  STATUS:               ID:20091102121851 L   I
 2009-11-02-1217-15S.COL___093                                                 6
 STAT SP IPHASW D HRMM SECON CODA AMPLIT PERI AZIMU VELO SNR AR TRES W  DIS CAZ7
 ANIL BZ IP     D 1219  7.82                             129   -0.7110 88.0 104 
 ANIL BN ES   2   1219 20.81                             129   -0.74 5 88.0 104 
 RREF BZ IP     D 1219  9.25                             127   -0.4010 94.9  75 
 RREF BE ES     D 1219 23.31                             127   -0.2310 94.9  75 
 RREF BN ES     C 1219 23.31                             127   -0.2310 94.9  75 
 RREF BZ I        1219 24.26     16745.7 0.64                          94.9  75 
 GUY  HZ IP     C 1219 10.25                             123   -0.2810  106  55 
 GUY  HE ES     C 1219 25.20                             123    0.0910  106  55 
 GUY  HN ES     D 1219 25.20                             123    0.0910  106  55 
 CIBA1EZ EP     D 1219  9.73                             123   -0.5410  107 104 
 MAL  SZ IP     C 1219 16.61                             113    2.04 9  149 240 
 MAL  SZ I        1219 44.20     23519.1 0.64                           149 240 
 PRA  HZ IP     D 1219 17.76                             109   -0.30 9  178 127 
 PRA  HN ES     D 1219 38.70                                            178 127 
 PRA  HE ES     D 1219 38.70                             109    0.18 9  178 127 
 PRA  HZ I        1219 40.03      8957.1 0.84                           178 127 
 HEL  BZ IP     C 1219 18.33                             109   -0.55 9  182  23 
 HEL  BN ES     C 1219 40.21                             110            182  23 
 HEL  BE ES     C 1219 40.21                             109    0.25 9  182  23 
 HEL  BZ I        1219 42.92      4666.8 0.76                           182  23 
 MARA BZ IP     D 1219 21.73                             107    0.29 9  205 173 
 MARA BE ES     C 1219 44.52                             107   -0.01 9  205 173 
 MARA BN ES     D 1219 44.52                             107   -0.01 9  205 173 
 SOL  SZ IP     D 1219 22.87                             105    0.06 8  219 321 
 SOL  SZ I        1219 56.54      1841.9 0.46                           219 321 
 BET  SZ IP     D 1219 24.52                             104    0.09 8  232 159 
 BET  SZ ES     C 1219 51.25                             104    1.39 8  232 159 
 BET  SZ I        1219 55.62      6668.0 0.66                           232 159 
 DBB  SZ IP     C 1219 27.91                             103    0.24 8  259 359 
 PCON BZ IP     D 1219 29.39                             103    0.82 8  261 185 
 PCON BN ES     C 1219 57.96                             103    0.74 8  261 185 
 PCON BZ I        1220  6.02      6557.6 0.62                           261 185 
 CHI  HZ IP     D 1219 30.34                             102    0.78 8  271  91 
 CHI  HZ I        1219 31.24      2334.5 0.56                           271  91 
 CHI  HE ES     C 1220  0.00                             102    1.03 8  271  91 
 CHI  HN ES     D 1220  0.14                             102    1.17 8  271  91 
 SOTA BZ EP     C 1219 31.36                             101   -0.05 7  285 190 
 FLO2 BZ EP     D 1219 36.98                              99   -1.37 6  347 170 
 FLO2 BN ES     C 1220 13.26                              99   -1.37 6  347 170 
 FLO2 BE ES     D 1220 13.26                              99   -1.37 6  347 170 
 FLO2 BZ I        1220 25.39      1533.6 0.68                           347 170 
 CRU  SZ EP     C 1219 40.05                              99    0.38 6  355 194 
 CRU  SZ E      D 1219 40.05                                            355 194 
 CRU  SZ I        1220 23.27      3913.5 0.82                           355 194 
 RUS  BZ IP     C 1219 40.70                              98   -0.74 6  368  68 
 RUS  BN ES     D 1220 21.09                              98    0.97 6  368  68 
 RUS  BE ES     C 1220 21.10                              98    0.98 6  368  68 
 BRR  HZ IP     C 1219 41.69                              98   -0.94 6  383  45 
 BRR  HZ I        1219 42.41       714.9 0.43                           383  45 
 BRR  HE ES     D 1220 20.46                              98   -1.79 6  383  45 
 BAR2 SZ IP     D 1219 43.97                              98   -0.24 6  393  57 
 BAR2 SZ ES     C 1220 26.43                              98    1.37 6  393  57 
 GCAL SZ EP     C 1219 45.35                              97   -0.71 6  408 200 
 GCAL SN ES     D 1220 26.47                              97   -1.88 6  408 200 
 GCAL SE ES     C 1220 26.48                              97   -1.87 6  408 200 
 YOP  HZ IP     C 1219 48.06                              97    0.37 5  423  80 
 TUM  HZ EP     C 1219 46.84                              97   -0.91 5  424 222 
 TUM  EN ES     D 1220 32.63                              97    1.28 5  424 222 
 TUM  HZ I        1221  0.68      1414.8 0.55                           424 222 
 CUM  SZ IP     D 1219 52.47                              97    0.75 5  452 204 
 CLIM HZ EP     C 1219 52.12                              96    0.05 5  455 205 
 CLIM HN ES     D 1220 41.99                              96    2.94 5  455 205 
 CLIM HE ES     D 1220 42.10                                            455 205 
 GUA  SZ IP     D 1219 51.26                              96   -0.77 5  459 121 
 GUA  SZ ES     C 1220 37.13                              96   -1.85 5  459 121 
 OCA  SZ IP     D 1219 57.44                              96   -0.34 4  505  39 
 OCA  SZ ES     C 1220 49.18                              96   -0.04 4  505  39 
 OTAV BZ EP     C 1220  3.16                              95   -0.89 4  553 207 
 MAP  HN ES     C 1221 10.36                              95   -1.09 3  608 263 
 MAP  HE ES     D 1221 10.36                              95   -1.09 3  608 263 
 BCIP BZ IP     D 1220 13.06                              94   -1.28 2  641 321 
 BCIP BE ES     C 1221 18.38                              94   -0.31 2  641 321 
 SDV  BZ EP     C 1220 28.30                              94   -2.07 0  769  53 
                                                                                
